#dP2020 12  1  0  0  0.00000000      96 __u+U ITR00 FIT  IAC
## 2134 172800.00000000   900.00000000 59184 0.0000000000000
+  114   C06C07C08C09C10C11C12C13C14C16C19C20C21C22C23C24C25
+        C26C27C28C29C30C32C33C34C35C36C37C38C39C40C43C44C45
+        C46E01E02E03E04E05E07E08E09E11E12E13E14E15E18E19E21
+        E24E25E26E27E30E31E33E36G01G02G03G04G05G06G07G08G09
+        G10G11G12G13G14G15G16G17G18G19G20G21G22G23G24G25G26
+        G27G28G29G30G31G32J01J02J03R01R02R03R04R05R07R08R09
+        R12R13R14R15R16R17R18R19R20R21R22R24  0  0  0  0  0
++         8  6  8  8  7  8  9  7  9  9  7  6  7  8  7  8  8
++         8  7  8  6  6  7  8  8  7  7  8 17  0 15  5  9  7
++        10  6  6  6  6  7  5  8  8  6  7  7  6  6  6  8  7
++         8  7  7  6  7  7  8  7  6  6  6  6  6  6  7  6  5
++         6  7  6  5  7  6  6  5  8  6  7  5  6  7  6  8  7
++         7  7  7  6  6  6  8  8  9  8  7  7  6  7  7  7  6
++         6  8  8  7  7  7  6  7  7  6  8  8  0  0  0  0  0
%c M  cc GPS ccc cccc cccc cccc cccc ccccc ccccc ccccc ccccc
%c cc cc ccc ccc cccc cccc cccc cccc ccccc ccccc ccccc ccccc
%f  0.0000000  0.000000000  0.00000000000  0.000000000000000
%f  0.0000000  0.000000000  0.00000000000  0.000000000000000
%i    0    0    0    0      0      0      0      0         0
%i    0    0    0    0      0      0      0      0         0
/* INFORMATION & ANALYSIS CENTER (IAC)      ULTRA-RAPID DATA
/* S/V CLOCKS ARE ALIGNED TO GNSS TIME                      
/* G:C1WC2W R:C1PC2P E:C1XC5X C:C2IC6I J:C1CC2S             
/* PCV:IGS14_2132 OL/AL:FES2004  NONE     YN ORB:CoN CLK:CoN
*  2020 12 01 12 15  0.00000000
PC06 -16629.668678  37807.557680  -6753.857859     25.650260
PC07  -9345.140393  26185.675528  32042.016539    -89.724373
PC08 -23469.615843  22484.849771 -26977.540418   -749.742121
PC09  -7104.626292  40339.587248   9316.107464    901.544033
PC10   5627.000173  32929.351309  26188.765366   -131.210583
PC11 -18111.107614   5429.747143  20610.965227   -788.317972
PC12  -9559.282610 -13679.677593  22401.804226    640.697885
PC13  -8768.050549  24545.963172 -33125.958729     33.411554
PC14 -19627.598566  -5414.453544 -19043.746880   -407.057248
PC16 -15153.266722  38868.785254  -5232.754974   -621.143237
PC19  15759.983497  -4626.447712  22576.927265    638.076455
PC20  20360.920761  13501.099314  13515.018658   -910.692879
PC21 -12938.717236 -24384.453296   4040.177637   -739.617048
PC22   1924.608643 -20554.291495  18759.318813   -804.042543
PC23 -11190.875717  15256.830732  20520.652936   -902.213662
PC24 -25331.245466  -5882.508349 -10170.247350   -725.127221
PC25 -25656.711891   7678.529159   7883.548872   -846.231128
PC26 -11115.569299 -14278.259961 -21259.415017    925.124024
PC27   2646.127118  21426.411190 -17686.948641    442.044203
PC28 -11540.619334  25331.402044  -2047.486952   -139.300471
PC29  18330.673962 -15071.124404 -14683.520879    318.741239
PC30  15204.907117   4892.860478 -22881.505484    411.411934
PC32  13116.430078  24297.967542  -4049.563756   -883.325266
PC33 -15793.793443   4647.544578 -22533.614676   -854.887602
PC34 -15495.214908  -4314.730699  22800.235669 999999.999999
PC35  10817.558599 -25678.709037   1804.051049   -534.045192
PC36  25946.823250  -6881.713590  -7590.561041   -818.395383
PC37   9872.397717  14767.651041  21536.102571   -868.947604
PC38 -19315.617903  25024.836049 -27937.991290 999999.999999
PC39 -10447.730502  40713.089765  -2192.227288 999999.999999
PC40    -76.921469  28580.135184  31078.319812 999999.999999
PC43 -18527.299278  14555.776683  14939.209700 999999.999999
PC44  -3252.398630 -21529.808407  17469.357632    -88.179591
PC45  11078.547298 -15184.240476 -20611.988216    296.907469
PC46  25652.778683   5308.523538   9568.836890 999999.999999
PE01  -3506.371880  16300.907581  24463.014754   -994.233640
PE02   3353.390276 -16350.290242 -24442.822987    180.438375
PE03   3242.191003 -27832.269023   9512.181189   -371.133661
PE04   9652.773343  26581.539754   8738.537847   -659.033731
PE05  14430.346943 -12779.236700  22456.906233   -324.883208
PE07 -17095.045097  -9590.630532 -22179.941758   -468.979551
PE08  -9922.244317 -26375.628409  -9046.119318   6083.581513
PE09  17030.268525   9387.608432  22315.368530   5847.134799
PE11  21789.542920   -259.319498 -20036.715227   6722.920094
PE12   5645.086382  15832.983103 -24356.713249   5478.995637
PE13 -21563.052691     72.503563  20289.322205    407.529243
PE14  17863.969835 -16000.913211 -18297.077416  -1244.470215
PE15  -5758.875834 -15697.465382  24436.384669    841.190645
PE18  -8354.329432  25730.840137   4432.024133  -1359.645585
PE19  -4712.079630  26846.812890 -11542.129896    142.082380
PE21 -21757.930428   5023.375960  19437.657779   -634.907384
PE24  27744.994870   9980.357415  -2444.695397   -612.291768
PE25  21865.602221  -4897.720284 -19326.769041   -521.346018
PE26 -24641.879760  16015.492043   3594.514454   2432.882987
PE27 -27883.523524  -9503.766276   2969.816557     81.401720
PE30 -16908.215741 -18608.137083 -15638.751567   3379.861256
PE31  17570.838307  18371.477344  15171.508257   -476.142187
PE33 -13438.820767  22223.567144 -14193.311470   -463.752444
PE36  24676.006548 -15790.492869  -4209.860003    473.670794
PG01  -3985.554654  16651.747546 -20447.566585    801.391035
PG02  21195.553370 -15393.799565   4985.336106   -549.217368
PG03   7239.289554  19423.222537 -16745.646927    -18.355367
PG04   -593.016475  26206.966159   4121.593402   -160.411263
PG05  12838.019914  -9423.464636  21129.026791    -27.262600
PG06  24568.718216  -4425.937205  -9066.984988     -2.915354
PG07  13312.657060  10403.052215  20923.614429   -425.278340
PG08  -5771.672913  25225.876679   5298.756839     -1.332231
PG09   8548.951700  20567.837385  14388.448118   -296.203667
PG10 -23378.645390 -10684.085717  -7120.019402     -5.763834
PG11  -8642.479245  23413.624530 -10047.561119    -93.480603
PG12  -3160.577389 -18996.984341 -18594.297701     32.893864
PG13  13083.612483 -19584.298976  12026.252035     70.481804
PG14  22481.073841  13160.061738  -5196.012942     50.149882
PG15   2637.831112 -25885.195951   3898.327426   -186.273254
PG16 -13392.905633   7612.735267  21469.083226   -244.171163
PG17  14151.667038   3417.457280 -21779.557021    361.279232
PG18 -14584.948587  -9036.822017  20282.996378    327.851237
PG19  15496.668305  -4098.021733 -21445.169924    -71.085968
PG20 -21132.070529 -15440.896558   5218.737333    525.792042
PG21 -12442.334922  17985.454291 -14067.106475     73.511365
PG22   -607.115715  17022.008192 -20218.355386   -721.983765
PG23 -20621.959485 -16505.002571   2907.699144    106.170946
PG24   7099.283660 -18538.153752 -17685.683438      5.706172
PG25 -15519.924265 -19515.674591  -9777.781604     31.847917
PG26 -21537.103195   -659.592634  15654.895552      7.589062
PG27 -12197.208325  17546.951224  15394.599654    -25.527665
PG28  22016.152068  11675.805041  -8348.901221    648.701265
PG29  -5269.190530 -22202.460078  13518.736874   -247.419882
PG30  21407.964857   3435.814124  15531.788754   -344.980852
PG31 -25376.802158   5553.164456  -6681.405283    -84.881414
PG32 -15048.269689  -2845.558800 -21617.527224      4.896026
PJ01 -20615.236740  22260.001836 -24733.551415   -335.336186
PJ02 -28421.456017  21788.035668  27135.169448     -0.030635
PJ03 -31046.168731  26884.499332  14522.846199     -3.777414
PR01  10160.903193  -4445.802944  22963.721375     71.407525
PR02  -2201.605228 -21662.612587  13371.553565    456.755592
PR03 -11439.820993 -22537.254850  -3621.978549     26.550811
PR04 -13951.889419 -10708.089254 -18461.214741     63.816544
PR05  -8701.702323   7057.866951 -22911.227823     62.118249
PR07  11662.199947  22243.303575   4347.503992    -41.608613
PR08  14051.568019  10602.665361  18496.443849    -55.995472
PR09  -3852.255240  10821.563884  22788.864358     10.683827
PR12  20600.476430  -4409.742608 -14335.160660    184.685900
PR13   4255.430106 -10489.948997 -22871.838076    -47.378654
PR14 -14964.888516 -10409.192558 -17824.495481     58.301031
PR15 -25017.650850  -4272.427663  -2561.739661    106.499199
PR16 -20070.718479   5304.427851  14894.040544     -8.737406
PR17  -1710.130873 -13815.927474  21377.285950    378.653795
PR18 -13039.477151    800.859633  21918.627390     58.133030
PR19 -17922.936815  14194.875755  11327.670129   -121.968931
PR20 -12047.754903  20826.362506  -8406.753221   -427.862362
PR21   2392.053583  13039.145029 -21793.743729   -170.063326
PR22  13678.961123  -1977.290225 -21468.935702    -84.669708
PR24  11219.152907 -21040.061867   9057.229746     22.496494
EOF
